{
  "signature": {
    "source": "NASA/JPL SBDB (Small-Body DataBase) Query API",
    "version": "1.0"
  },
  "fields": [
    "pdes",
    "prefix",
    "epoch_mjd",
    "e",
    "a",
    "q",
    "i",
    "om",
    "w",
    "H",
    "G",
    "M1",
    "K1",
    "condition_code",
    "data_arc",
    "n_obs_used"
  ],
  "data": [
    [
      "164294",
      null,
      "61000",
      ".4544670604192123",
      ".61757475580428",
      ".336907371944796",
      "2.953015945981771",
      "211.1394394937766",
      "5.45185533189696",
      "20.45",
      null,
      null,
      null,
      "1",
      "3564",
      72
    ],
    [
      "1998 DK36",
      null,
      "50868",
      ".4160165290189738",
      ".6922572378564286",
      ".404266784575135",
      "2.017520293212931",
      "151.461719724384",
      "180.0427079366329",
      "25.01",
      null,
      null,
      null,
      "9",
      "1",
      4
    ],
    [
      "2012 VE46",
      null,
      "61000",
      ".3612327680951801",
      ".7130501490658585",
      ".4554730699281176",
      "6.669134777796773",
      "8.641403164804078",
      "190.614230695761",
      "20.2",
      null,
      null,
      null,
      "1",
      "2225",
      77
    ],
    [
      "2015 DR215",
      null,
      "61000",
      ".4714977318294766",
      ".6666420981849492",
      ".3523218609487024",
      "4.055171673031529",
      "314.5636516487796",
      "42.69497182816811",
      "20.51",
      null,
      null,
      null,
      "0",
      "2602",
      82
    ],
    [
      "2021 LJ4",
      null,
      "61000",
      ".3820158653414663",
      ".676387118433704",
      ".4179965080794318",
      "9.823650826809358",
      "277.553400334974",
      "56.63916191241645",
      "20.11",
      null,
      null,
      null,
      "1",
      "2860",
      26
    ],
    [
      "2024 WD19",
      null,
      "61000",
      ".1578765334567881",
      ".6795124696312006",
      ".5722333964851657",
      "3.786321076551432",
      "51.42145723438387",
      "263.6825353584056",
      "21.32",
      null,
      null,
      null,
      "7",
      "32",
      14
    ]
  ],
  "count": 6
}